OBJECT_NAME,OBJECT_ID,EPOCH,MEAN_MOTION,ECCENTRICITY,INCLINATION,RA_OF_ASC_NODE,ARG_OF_PERICENTER,MEAN_ANOMALY,EPHEMERIS_TYPE,CLASSIFICATION_TYPE,NORAD_CAT_ID,ELEMENT_SET_NO,REV_AT_EPOCH,BSTAR,MEAN_MOTION_DOT,MEAN_MOTION_DDOT
QB50P1,2014-033R,2026-06-13T23:40:36.462432,15.18216590,.00075618,98.0960,175.9078,228.0389,132.0200,0,U,40025,999,65254,.43163671E-3,.8764E-4,0
DTUSAT-2,2014-033W,2026-06-14T11:08:00.907296,15.14988518,.0006425,98.0857,163.0180,236.3863,123.6755,0,U,40030,999,65227,.37065E-3,.6848E-4,0
QB50P2,2014-033Y,2026-06-14T11:00:08.352000,15.15127988,.0007753,98.0744,162.1686,171.9100,188.2256,0,U,40032,999,65225,.35082E-3,.6505E-4,0
PERSEUS-M1,2014-033AF,2026-06-14T08:38:27.964032,14.95623959,.0010513,97.9644,109.4456,312.2620,47.7708,0,U,40039,999,65021,.10597E-3,.1117E-4,0
POLYITAN-1,2014-033AJ,2026-06-14T07:28:06.957696,15.33167050,.0008451,98.0938,191.3000,149.3870,210.7865,0,U,40042,999,65315,.5776E-3,.18464E-3,0
TIGRISAT,2014-033AK,2026-06-14T08:29:04.088256,14.85153048,.0050677,97.7824,315.4300,84.2807,276.4183,0,U,40043,999,64520,.24722E-3,.211E-4,0
AISAT,2014-034B,2026-06-14T12:15:33.773184,15.08783064,.0007987,98.2397,77.7228,224.0588,136.0002,0,U,40054,999,64680,.65115E-3,.10176E-3,0
CANX-4,2014-034C,2026-06-14T12:25:05.278080,14.81260290,.0013347,98.3125,40.7324,25.3372,334.8491,0,U,40055,999,64413,.1155E-3,.844E-5,0
CANX-5,2014-034D,2026-06-14T09:08:19.958784,14.81277276,.0013369,98.3127,40.6342,25.8843,334.3034,0,U,40056,999,63492,.11735E-3,.859E-5,0
VELOX-I,2014-034E,2026-06-14T12:28:34.336704,14.97859627,.0006478,98.2545,70.3726,286.4585,73.5923,0,U,40057,999,64620,.40851E-3,.4743E-4,0
GONETS-M 10,2014-036C,2026-06-14T11:52:18.701760,12.42945757,.0022549,82.5105,309.3469,146.2073,214.0449,0,U,40063,999,54191,.19303E-3,.37E-6,0
METEOR-M 2,2014-037A,2026-06-14T11:17:55.447296,14.21462070,.0006853,98.5104,141.3050,50.7487,309.4298,0,U,40069,999,61893,.17721E-3,.346E-5,0
DX1,2014-037C,2026-06-14T11:22:11.536896,14.89978424,.0005798,98.3861,127.0105,287.7743,72.2840,0,U,40071,999,64570,.11885E-3,.1083E-4,0
UKUBE-1,2014-037F,2026-06-14T10:59:04.262208,15.13517247,.000253,98.4229,168.4428,134.4762,225.6674,0,U,40074,999,64814,.44745E-3,.794E-4,0
GAOFEN-2,2014-049A,2026-06-14T12:59:20.383296,14.80897516,.0006012,98.0117,229.7508,236.9030,123.1605,0,U,40118,999,63884,.14515E-3,.1068E-4,0
BRITE-PL2 (HEWELIUSZ),2014-049B,2026-06-14T13:28:18.843744,14.94585543,.0015205,97.9095,277.5411,116.2621,244.0164,0,U,40119,999,64105,.1339E-3,.1392E-4,0
CBERS 4,2014-079A,2026-06-14T12:40:14.131776,14.35509313,.0001917,98.3538,222.4430,65.6918,294.4468,0,U,40336,999,60357,.14643E-3,.379E-5,0
SMAP,2015-003A,2026-06-14T11:33:29.336256,14.63364512,.0001302,98.1276,172.6145,95.2533,264.8817,0,U,40376,999,60722,.82989E-4,.382E-5,0
GONETS-M 11,2015-020A,2026-06-14T12:18:38.188800,12.42877214,.0016754,82.4879,32.6588,11.4601,348.6856,0,U,40552,999,50840,.4705E-3,.75E-6,0
GONETS-M 12,2015-020B,2026-06-14T11:40:30.308160,12.42890872,.0015492,82.4913,33.7985,356.8296,3.2683,0,U,40553,999,50839,-.17767E-3,-.15E-6,0
GONETS-M 13,2015-020C,2026-06-14T11:02:15.209664,12.42870136,.0013794,82.4874,32.4308,342.3485,17.7113,0,U,40554,999,50836,.8909E-4,.22E-6,0
DMC3-FM1,2015-032A,2026-06-14T12:16:28.472160,14.85735880,.0007053,97.6471,30.7916,67.0281,293.1679,0,U,40715,999,58951,.98431E-4,.803E-5,0
DMC3-FM2,2015-032B,2026-06-14T12:48:14.519232,14.85744051,.000768,97.6527,32.3850,71.0060,289.1988,0,U,40716,999,58951,.14057E-3,.117E-4,0
DMC3-FM3,2015-032C,2026-06-14T11:44:49.401024,14.85730243,.0006855,97.6579,34.0940,70.8380,289.3577,0,U,40717,999,58951,.22297E-4,.142E-5,0
CARBONITE 1 (CBNT-1),2015-032D,2026-06-14T11:37:56.396064,14.83579358,.0013287,97.6500,343.6646,307.7991,52.2020,0,U,40718,999,58894,.1461E-3,.1154E-4,0
DEORBITSAIL,2015-032E,2026-06-14T10:18:12.621600,15.03817929,.0011689,97.5877,22.3100,242.7732,117.2303,0,U,40719,999,59083,.53583E-3,.7321E-4,0
2015-049G,2015-049G,2026-06-14T11:50:37.537728,15.66256230,.0005028,97.4558,209.4046,201.0641,159.0412,0,U,40905,999,59602,.39547E-3,.40792E-3,0
LILACSAT-2,2015-049K,2026-06-14T11:58:13.462752,15.51366738,.0005381,97.4648,202.2380,258.0299,102.0349,0,U,40908,999,59533,.28568E-3,.16724E-3,0
COSMOS 2507 (RODNIK-S 13),2015-050A,2026-06-14T11:53:24.102240,12.42926788,.0010322,82.4928,81.3460,2.6045,357.5087,0,U,40920,999,48652,.41895E-3,.68E-6,0
COSMOS 2508 (RODNIK-S 14),2015-050B,2026-06-14T12:44:30.540192,12.42913853,.0015265,82.4881,79.8299,32.3183,327.8829,0,U,40921,999,48651,-.3121E-3,-.33E-6,0
COSMOS 2509 (RODNIK-S 15),2015-050C,2026-06-14T13:13:42.112704,12.42883410,.0015784,82.4889,79.9194,48.2900,311.9527,0,U,40922,999,48655,-.52321E-4,.3E-7,0
